      2.10          N: GNSS NAV DATA                        RINEX VERSION / TYPE
fic2rin                                 11/28/2021 00:17:35 PGM / RUN BY / DATE
                                                            END OF HEADER
23 21 11 27  4  0  0.0 2.833455801010e-05-4.320099833421e-12 0.000000000000e+00
    1.640000000000e+02-7.275000000000e+01 4.447685263944e-09-3.232372896848e-01
   -3.864988684654e-06 1.889769686386e-03 5.939975380898e-06 5.153687852859e+03
    5.328000000000e+05 3.539025783539e-08 5.972788167973e-01-4.656612873077e-08
    9.665063961051e-01 2.715312500000e+02 2.811190552913e+00-8.113909405467e-09
   -1.300054152474e-10 1.000000000000e+00 2.185000000000e+03 0.000000000000e+00
    2.400000000000e+00 0.000000000000e+00-8.381903171539e-09 6.760000000000e+02
    5.256000000000e+05 4.000000000000e+00
18 21 11 27  4  0  0.0 2.891966141760e-04-6.139089236967e-12 0.000000000000e+00
    1.380000000000e+02 1.600000000000e+01 4.404112020372e-09 4.411604988941e-01
    6.966292858124e-07 2.082977327518e-03 4.364177584648e-06 5.153639055252e+03
    5.328000000000e+05 5.215406417847e-08-4.018393411929e-01-2.607703208923e-08
    9.701766044812e-01 2.980000000000e+02 3.067560660146e+00-8.200698734876e-09
    4.321608583773e-11 1.000000000000e+00 2.185000000000e+03 0.000000000000e+00
    2.400000000000e+00 0.000000000000e+00-8.381903171539e-09 3.940000000000e+02
    5.256000000000e+05 4.000000000000e+00
11 21 11 27  4  0  0.0 1.737754791975e-05-2.273736754432e-12 0.000000000000e+00
    2.350000000000e+02 1.134375000000e+01 4.537689012961e-09 2.656542009786e+00
    6.332993507385e-07 3.774176584557e-04 4.917383193970e-06 5.153741004944e+03
    5.328000000000e+05-3.725290298462e-09-3.652208500344e-01 7.636845111847e-08
    9.614797759377e-01 2.854375000000e+02 2.606035847122e+00-8.246414924853e-09
    8.250343659930e-11 1.000000000000e+00 2.185000000000e+03 0.000000000000e+00
    6.144000000000e+03 6.300000000000e+01-8.847564458847e-09 1.003000000000e+03
    5.256000000000e+05 4.000000000000e+00
28 21 11 27  4  0  0.0 4.547820426524e-04-7.617018127348e-12 0.000000000000e+00
    5.300000000000e+01 2.340625000000e+01 4.363753196408e-09 2.927652129948e+00
    1.166015863419e-06 1.728631847072e-02 6.888061761856e-06 5.153710668564e+03
    5.328000000000e+05 2.775341272354e-07-2.423716090029e+00 7.450580596924e-08
    9.706506001793e-01 2.484375000000e+02-1.309583305333e+00-7.712821269964e-09
   -2.746542975968e-10 1.000000000000e+00 2.185000000000e+03 0.000000000000e+00
    2.400000000000e+00 6.300000000000e+01-1.117587089539e-08 5.300000000000e+01
    5.256000000000e+05 4.000000000000e+00
17 21 11 27  3 59 44.0 5.394280888140e-04 5.343281372916e-12 0.000000000000e+00
    1.700000000000e+01 3.278125000000e+01 3.973022635197e-09 2.468286389441e+00
    1.765787601471e-06 1.376946934033e-02 7.655471563339e-06 5.153711294174e+03
    5.327840000000e+05 1.508742570877e-07-1.408470790428e+00-9.313225746155e-08
    9.804237955693e-01 2.366250000000e+02-1.531922895172e+00-7.594244902211e-09
   -1.935794919343e-10 1.000000000000e+00 2.185000000000e+03 0.000000000000e+00
    2.400000000000e+00 0.000000000000e+00-1.117587089539e-08 1.700000000000e+01
    5.257800000000e+05 4.000000000000e+00
 8 21 11 27  3 59 44.0-4.577683284879e-05-1.477928890381e-12 0.000000000000e+00
    2.000000000000e+00 5.012500000000e+01 4.380896767649e-09 2.551925564869e+00
    2.654269337654e-06 6.824486074038e-03 8.625909686089e-06 5.153689258575e+03
    5.327840000000e+05-1.750886440277e-07-1.489209547898e+00 5.029141902924e-08
    9.654092411928e-01 2.148125000000e+02 5.752157899894e-02-7.942830850787e-09
   -1.192906832215e-10 1.000000000000e+00 2.185000000000e+03 0.000000000000e+00
    2.400000000000e+00 0.000000000000e+00 5.122274160385e-09 2.000000000000e+00
    5.272200000000e+05 4.000000000000e+00
21 21 11 27  3 59 44.0 1.521743834019e-04 1.023181539495e-12 0.000000000000e+00
    9.000000000000e+00 3.753125000000e+01 4.585190991609e-09 2.586308563596e+00
    2.063810825348e-06 2.428455883637e-02 4.680827260017e-06 5.153620698929e+03
    5.327840000000e+05 4.414469003677e-07-4.995316353834e-01 1.303851604462e-07
    9.590073478311e-01 2.810625000000e+02-1.053337233072e+00-8.019262605905e-09
   -2.714398779890e-11 1.000000000000e+00 2.185000000000e+03 0.000000000000e+00
    2.400000000000e+00 0.000000000000e+00-1.024454832077e-08 9.000000000000e+00
    5.292000000000e+05 4.000000000000e+00
 8 21 11 27  5 59 44.0-4.578800871968e-05-1.477928890381e-12 0.000000000000e+00
    4.000000000000e+00 5.540625000000e+01 4.298393331050e-09-2.681038571561e+00
    2.834945917130e-06 6.824385258369e-03 8.778646588326e-06 5.153689382553e+03
    5.399840000000e+05-1.247972249985e-07-1.489266538798e+00-6.332993507385e-08
    9.654087452636e-01 2.157187500000e+02 5.747099714343e-02-7.886399928784e-09
   -9.286101089098e-11 1.000000000000e+00 2.185000000000e+03 0.000000000000e+00
    2.400000000000e+00 0.000000000000e+00 5.122274160385e-09 4.000000000000e+00
    5.328000000000e+05 4.000000000000e+00
21 21 11 27  5 59 44.0 1.521818339825e-04 1.023181539495e-12 0.000000000000e+00
    1.000000000000e+01 4.543750000000e+01 4.523402703593e-09-2.646654415666e+00
    2.624467015266e-06 2.428606734611e-02 4.347413778305e-06 5.153617929459e+03
    5.399840000000e+05 6.705522537231e-08-4.995904227464e-01 3.073364496231e-07
    9.590087668617e-01 2.890312500000e+02-1.053343965421e+00-7.879971089568e-09
    2.525105180766e-10 1.000000000000e+00 2.185000000000e+03 0.000000000000e+00
    2.400000000000e+00 0.000000000000e+00-1.024454832077e-08 1.000000000000e+01
    5.328000000000e+05 4.000000000000e+00
17 21 11 27  5 59 44.0 5.394662730396e-04 5.343281372916e-12 0.000000000000e+00
    1.800000000000e+01 4.071875000000e+01 3.933378126701e-09-2.764793035173e+00
    2.216547727585e-06 1.376705896109e-02 8.611008524895e-06 5.153715869904e+03
    5.399840000000e+05 1.732259988785e-07-1.408526359371e+00 1.136213541031e-07
    9.804228827084e-01 2.198437500000e+02-1.531876187123e+00-7.603531003300e-09
   -3.357282701443e-11 1.000000000000e+00 2.185000000000e+03 0.000000000000e+00
    2.400000000000e+00 0.000000000000e+00-1.117587089539e-08 1.800000000000e+01
    5.328000000000e+05 4.000000000000e+00
 2 21 11 27  6  0  0.0-6.436021067202e-04-1.477928890381e-12 0.000000000000e+00
    9.400000000000e+01 1.850000000000e+01 4.491258507516e-09 1.466699835147e+00
    5.178153514862e-07 2.055296557955e-02 5.651265382767e-06 5.153803056717e+03
    5.400000000000e+05 4.097819328308e-08-4.984786123208e-01-5.308538675308e-07
    9.647895139844e-01 2.712812500000e+02-1.476323450089e+00-8.156768333570e-09
    1.342913080577e-10 1.000000000000e+00 2.185000000000e+03 0.000000000000e+00
    2.400000000000e+00 0.000000000000e+00-1.769512891769e-08 9.400000000000e+01
    5.328000000000e+05 4.000000000000e+00
 1 21 11 27  6  0  0.0 4.996582865715e-04-1.034550223267e-11 0.000000000000e+00
    8.600000000000e+01 2.621875000000e+01 4.175888228221e-09 1.274021427238e+00
    1.389533281326e-06 1.111671538092e-02 5.146488547325e-06 5.153674341202e+03
    5.400000000000e+05-1.583248376846e-07-4.108995351807e-01 1.061707735062e-07
    9.864062893356e-01 2.953125000000e+02 8.856809534239e-01-8.182126532698e-09
    9.714690370133e-11 1.000000000000e+00 2.185000000000e+03 0.000000000000e+00
    2.400000000000e+00 0.000000000000e+00 5.122274160385e-09 8.600000000000e+01
    5.328000000000e+05 4.000000000000e+00
 5 21 11 27  6  0  0.0-6.244750693440e-05-1.250555214938e-12 0.000000000000e+00
    2.600000000000e+01-6.400000000000e+01 4.626264131042e-09-2.378903082268e+00
   -3.330409526825e-06 5.980207351968e-03 5.142763257027e-06 5.153623924255e+03
    5.400000000000e+05 9.313225746155e-08 5.851562642100e-01-3.725290298462e-08
    9.586192429793e-01 2.788437500000e+02 1.016019885466e+00-8.141053393266e-09
    3.928735076157e-12 1.000000000000e+00 2.185000000000e+03 0.000000000000e+00
    2.400000000000e+00 0.000000000000e+00-1.117587089539e-08 2.600000000000e+01
    5.328000000000e+05 4.000000000000e+00
 3 21 11 27  6  0  0.0-2.432893961668e-05-1.057287590811e-11 0.000000000000e+00
    6.800000000000e+01-7.518750000000e+01 4.444828002070e-09 1.012410891434e-01
   -3.919005393982e-06 3.877486684360e-03 5.574896931648e-06 5.153728929520e+03
    5.400000000000e+05-1.490116119385e-08 6.244730287682e-01 9.685754776001e-08
    9.716107147777e-01 2.767500000000e+02 9.980318974288e-01-8.186769583243e-09
   -1.150047904111e-10 1.000000000000e+00 2.185000000000e+03 0.000000000000e+00
    2.400000000000e+00 0.000000000000e+00 1.862645149231e-09 6.800000000000e+01
    5.328000000000e+05 4.000000000000e+00
12 21 11 27  6  0  0.0-1.323013566434e-04-5.570655048359e-12 0.000000000000e+00
    4.400000000000e+01 2.109375000000e+01 4.472686305338e-09-5.828430498668e-02
    9.760260581970e-07 8.386108209379e-03 7.126480340958e-06 5.153644697189e+03
    5.400000000000e+05-9.126961231232e-08-2.445918407119e+00 8.568167686462e-08
    9.715434498044e-01 2.530625000000e+02 1.231078381345e+00-8.143553497405e-09
   -2.025084352892e-10 1.000000000000e+00 2.185000000000e+03 0.000000000000e+00
    2.400000000000e+00 0.000000000000e+00-1.257285475731e-08 4.400000000000e+01
    5.328000000000e+05 4.000000000000e+00
 6 21 11 27  6  0  0.0 1.279404386878e-04 9.549694368616e-12 0.000000000000e+00
    3.800000000000e+01 2.059375000000e+01 4.046239970707e-09 1.672621879506e+00
    1.041218638420e-06 2.437726361677e-03 5.293637514114e-06 5.153622676849e+03
    5.400000000000e+05-7.450580596924e-09-4.191572878806e-01-6.332993507385e-08
    9.858049714883e-01 2.870312500000e+02-1.040160871835e+00-7.961403052965e-09
    9.036090675161e-11 1.000000000000e+00 2.185000000000e+03 0.000000000000e+00
    2.400000000000e+00 0.000000000000e+00 4.190951585770e-09 3.800000000000e+01
    5.328000000000e+05 4.000000000000e+00
